NORAD_CAT_ID,OBJECT_NAME,OBJECT_TYPE,EPOCH,MEAN_MOTION,ECCENTRICITY,INCLINATION,RA_OF_ASC_NODE,ARG_OF_PERICENTER,MEAN_ANOMALY,BSTAR,MEAN_MOTION_DOT,MEAN_MOTION_DDOT,TLE_LINE0,TLE_LINE1,TLE_LINE2,SEMIMAJOR_AXIS,PERIOD,APOGEE,PERIGEE,DECAYED
55750.0,STARLINK-5573,PAYLOAD,2023-04-15 22:00:01,15.35816026,0.0003105,70.0024,35.4597,265.1956,302.9178,-0.029918,-0.00955794,0.0,0 STARLINK-5573,1 55750U 23028K   23105.91668981 -.00955794  00000-0 -29918-1 0  9997,2 55750  70.0024  35.4597 0003105 265.1956 302.9178 15.35816026  7401,6836.635,93.761,460.623,456.377,0.0
55750.0,STARLINK-5573,PAYLOAD,2023-04-16 10:00:00,15.34834351,0.0003164,70.002,34.1251,271.5525,179.2222,-0.030756,-0.00952419,0.0,0 STARLINK-5573,1 55750U 23028K   23106.41667824 -.00952419  00000-0 -30756-1 0  9991,2 55750  70.0020  34.1251 0003164 271.5525 179.2222 15.34834351  1306,6839.55,93.821,463.579,459.251,0.0
55750.0,STARLINK-5573,PAYLOAD,2023-04-16 22:00:00,15.33857234,0.0003319,70.0028,32.7925,267.9277,63.814,-0.031693,-0.00951455,0.0,0 STARLINK-5573,1 55750U 23028K   23106.91667824 -.00951455  00000-0 -31693-1 0  9996,2 55750  70.0028  32.7925 0003319 267.9277  63.8140 15.33857234  1302,6842.454,93.881,466.59,462.048,0.0
55750.0,STARLINK-5573,PAYLOAD,2023-04-17 12:00:00,15.32677676,0.0003162,70.0026,31.2405,269.2628,41.3929,-0.030684,-0.00892404,0.0,0 STARLINK-5573,1 55750U 23028K   23107.50001157 -.00892404  00000-0 -30684-1 0  9990,2 55750  70.0026  31.2405 0003162 269.2628  41.3929 15.32677676  7646,6845.964,93.953,469.994,465.664,0.0
55750.0,STARLINK-5573,PAYLOAD,2023-04-17 14:00:01,15.3249549,0.0003245,70.0027,31.0189,269.5646,140.7418,-0.02925,-0.00849344,0.0,0 STARLINK-5573,1 55750U 23028K   23107.58334491 -.00849344  00000-0 -29250-1 0  9990,2 55750  70.0027  31.0189 0003245 269.5646 140.7418 15.32495490  1305,6846.507,93.964,470.593,466.15,0.0
55750.0,STARLINK-5573,PAYLOAD,2023-04-17 22:00:00,15.31898413,0.0003238,70.0031,30.1335,270.0498,178.3458,-0.033746,-0.00952202,0.0,0 STARLINK-5573,1 55750U 23028K   23107.91667824 -.00952202  00000-0 -33746-1 0  9999,2 55750  70.0031  30.1335 0003238 270.0498 178.3458 15.31898413  1309,6848.286,94.001,472.368,467.933,0.0
55750.0,STARLINK-5573,PAYLOAD,2023-04-18 06:00:00,15.31220498,0.0003073,70.003,29.2489,275.3903,210.3277,-0.032298,-0.00896929,0.0,0 STARLINK-5573,1 55750U 23028K   23108.25001157 -.00896929  00000-0 -32298-1 0  9992,2 55750  70.0030  29.2489 0003073 275.3903 210.3277 15.31220498  7767,6850.307,94.043,474.277,470.067,0.0
55750.0,STARLINK-5573,PAYLOAD,2023-04-18 14:00:01,15.30539951,0.0003074,70.003,28.3654,268.0979,254.1651,-0.031098,-0.00849355,0.0,0 STARLINK-5573,1 55750U 23028K   23108.58334491 -.00849355  00000-0 -31098-1 0  9996,2 55750  70.0030  28.3654 0003074 268.0979 254.1651 15.30539951  1306,6852.337,94.084,476.309,472.096,0.0
55750.0,STARLINK-5573,PAYLOAD,2023-04-18 22:00:00,15.29936792,0.0003151,70.0033,27.4827,268.1346,289.8739,-0.035567,-0.00956729,0.0,0 STARLINK-5573,1 55750U 23028K   23108.91667824 -.00956729  00000-0 -35567-1 0  9991,2 55750  70.0033  27.4827 0003151 268.1346 289.8739 15.29936792  7867,6854.138,94.122,478.163,473.843,0.0
55750.0,STARLINK-5573,PAYLOAD,2023-04-19 14:00:01,15.28583508,0.0003174,70.0032,25.72,266.0093,1.171,-0.033047,-0.00849604,0.0,0 STARLINK-5573,1 55750U 23028K   23109.58334491 -.00849604  00000-0 -33047-1 0  9990,2 55750  70.0032  25.7200 0003174 266.0093   1.1710 15.28583508  7960,6858.183,94.205,482.225,477.871,0.0
55750.0,STARLINK-5573,PAYLOAD,2023-04-19 22:00:00,15.27976554,0.0003322,70.0033,24.8401,267.8893,32.6908,-0.037519,-0.00950626,0.0,0 STARLINK-5573,1 55750U 23028K   23109.91667824 -.00950626  00000-0 -37519-1 0  9991,2 55750  70.0033  24.8401 0003322 267.8893  32.6908 15.27976554  8017,6859.999,94.242,484.143,479.585,0.0
55750.0,STARLINK-5573,PAYLOAD,2023-04-20 14:00:01,15.26623315,0.0003323,70.0032,23.0828,267.6301,97.429,-0.034864,-0.00844649,0.0,0 STARLINK-5573,1 55750U 23028K   23110.58334491 -.00844649  00000-0 -34864-1 0  9994,2 55750  70.0032  23.0828 0003323 267.6301  97.4290 15.26623315  1304,6864.052,94.326,488.198,483.636,0.0
55750.0,STARLINK-5573,PAYLOAD,2023-04-20 22:00:00,15.26018436,0.000339,70.0033,22.2055,270.0741,126.0379,-0.039752,-0.00949076,0.0,0 STARLINK-5573,1 55750U 23028K   23110.91667824 -.00949076  00000-0 -39752-1 0  9991,2 55750  70.0033  22.2055 0003390 270.0741 126.0379 15.26018436  1307,6865.866,94.363,490.058,485.403,0.0
55750.0,STARLINK-5573,PAYLOAD,2023-04-21 06:00:00,15.25366066,0.0003304,70.0027,21.3289,275.0197,151.3644,-0.039905,-0.00935198,0.0,0 STARLINK-5573,1 55750U 23028K   23111.25001157 -.00935198  00000-0 -39905-1 0  9990,2 55750  70.0027  21.3289 0003304 275.0197 151.3644 15.25366066  8222,6867.823,94.404,491.958,487.419,0.0
55750.0,STARLINK-5573,PAYLOAD,2023-04-21 14:00:01,15.24667224,0.0003261,70.003,20.4534,268.7951,187.0997,-0.036966,-0.00844233,0.0,0 STARLINK-5573,1 55750U 23028K   23111.58334491 -.00844233  00000-0 -36966-1 0  9999,2 55750  70.0030  20.4534 0003261 268.7951 187.0997 15.24667224  1306,6869.922,94.447,494.027,489.547,0.0
55750.0,STARLINK-5573,PAYLOAD,2023-04-21 22:00:00,15.24057866,0.0003279,70.003,19.5787,270.5894,214.0132,-0.042003,-0.00945639,0.0,0 STARLINK-5573,1 55750U 23028K   23111.91667824 -.00945639  00000-0 -42003-1 0  9996,2 55750  70.0030  19.5787 0003279 270.5894 214.0132 15.24057866  1308,6871.753,94.485,495.871,491.365,0.0
55750.0,STARLINK-5573,PAYLOAD,2023-04-22 14:00:01,15.2271411,0.0003207,70.0028,17.8316,266.8311,272.8578,-0.039437,-0.00849236,0.0,0 STARLINK-5573,1 55750U 23028K   23112.58334491 -.00849236  00000-0 -39437-1 0  9994,2 55750  70.0028  17.8316 0003207 266.8311 272.8578 15.22714110  1303,6875.795,94.568,499.865,495.455,0.0
55750.0,STARLINK-5573,PAYLOAD,2023-04-22 22:00:01,15.22095523,0.0003292,70.0029,16.9594,268.7019,297.4155,-0.044036,-0.0093598,0.0,0 STARLINK-5573,1 55750U 23028K   23112.91668981 -.00935980  00000-0 -44036-1 0  9998,2 55750  70.0029  16.9594 0003292 268.7019 297.4155 15.22095523  8471,6877.658,94.606,501.787,497.259,0.0
55750.0,STARLINK-5573,PAYLOAD,2023-04-23 14:00:01,15.2076096,0.0003311,70.0026,15.2174,264.7715,351.6711,-0.042047,-0.00854323,0.0,0 STARLINK-5573,1 55750U 23028K   23113.58334491 -.00854323  00000-0 -42047-1 0  9999,2 55750  70.0026  15.2174 0003311 264.7715 351.6711 15.20760960  1303,6881.681,94.689,505.825,501.267,0.0
55750.0,STARLINK-5573,PAYLOAD,2023-04-23 22:00:00,15.20136173,0.0003384,70.0028,14.3478,267.6939,12.7693,-0.046413,-0.00931654,0.0,0 STARLINK-5573,1 55750U 23028K   23113.91667824 -.00931654  00000-0 -46413-1 0  9999,2 55750  70.0028  14.3478 0003384 267.6939  12.7693 15.20136173  1309,6883.566,94.728,507.761,503.102,0.0
55750.0,STARLINK-5573,PAYLOAD,2023-04-24 04:00:00,15.19629475,0.0003196,70.0025,13.696,271.7941,296.1705,-0.044621,-0.00885881,0.0,0 STARLINK-5573,1 55750U 23028K   23114.16667824 -.00885881  00000-0 -44621-1 0  9996,2 55750  70.0025  13.6960 0003196 271.7941 296.1705 15.19629475  8662,6885.097,94.76,509.162,504.761,0.0
55750.0,STARLINK-5573,PAYLOAD,2023-04-24 14:00:01,15.18806147,0.0003443,70.0025,12.611,265.6202,60.536,-0.044674,-0.00867351,0.0,0 STARLINK-5573,1 55750U 23028K   23114.58334491 -.00867351  00000-0 -44674-1 0  9993,2 55750  70.0025  12.6110 0003443 265.6202  60.5360 15.18806147  8735,6887.585,94.811,511.821,507.078,0.0
55750.0,STARLINK-5573,PAYLOAD,2023-04-25 14:00:01,15.16857395,0.0003415,70.0024,10.0122,266.3916,122.498,-0.047874,-0.00877911,0.0,0 STARLINK-5573,1 55750U 23028K   23115.58335648 -.00877911  00000-0 -47874-1 0  9997,2 55750  70.0024  10.0122 0003415 266.3916 122.4980 15.16857395  1309,6893.482,94.933,517.702,512.993,0.0
55750.0,STARLINK-5573,PAYLOAD,2023-04-26 14:00:01,15.14902318,0.000335,70.0025,7.4213,269.6551,174.8055,-0.05096,-0.00883398,0.0,0 STARLINK-5573,1 55750U 23028K   23116.58334491 -.00883398  00000-0 -50960-1 0  9999,2 55750  70.0025   7.4213 0003350 269.6551 174.8055 15.14902318  9036,6899.412,95.056,523.588,518.966,0.0
55750.0,STARLINK-5573,PAYLOAD,2023-04-26 22:00:00,15.14261175,0.000334,70.0027,6.5595,272.6475,188.7985,-0.054528,-0.00924984,0.0,0 STARLINK-5573,1 55750U 23028K   23116.91667824 -.00924984  00000-0 -54528-1 0  9996,2 55750  70.0027   6.5595 0003340 272.6475 188.7985 15.14261175  1306,6901.359,95.096,525.53,520.919,0.0
55750.0,STARLINK-5573,PAYLOAD,2023-04-27 04:00:00,15.13772521,0.0003477,70.0025,5.9134,274.8433,108.8175,-0.054299,-0.00909681,0.0,0 STARLINK-5573,1 55750U 23028K   23117.16667824 -.00909681  00000-0 -54299-1 0  9996,2 55750  70.0025   5.9134 0003477 274.8433 108.8175 15.13772521  9128,6902.845,95.127,527.11,522.309,0.0
55750.0,STARLINK-5573,PAYLOAD,2023-04-27 14:00:01,15.12952973,0.0003278,70.0026,4.8383,268.6587,224.455,-0.054606,-0.00895044,0.0,0 STARLINK-5573,1 55750U 23028K   23117.58335648 -.00895044  00000-0 -54606-1 0  9997,2 55750  70.0026   4.8383 0003278 268.6587 224.4550 15.12952973  1307,6905.337,95.178,529.466,524.939,0.0
55750.0,STARLINK-5573,PAYLOAD,2023-04-27 22:00:00,15.12300634,0.0003268,70.0028,3.9791,271.946,235.7474,-0.057181,-0.00918446,0.0,0 STARLINK-5573,1 55750U 23028K   23117.91667824 -.00918446  00000-0 -57181-1 0  9991,2 55750  70.0028   3.9791 0003268 271.9460 235.7474 15.12300634  9239,6907.323,95.219,531.445,526.93,0.0
55750.0,STARLINK-5573,PAYLOAD,2023-04-28 14:00:01,15.11001301,0.0003224,70.0027,2.2632,267.2611,267.3401,-0.05823,-0.0090319,0.0,0 STARLINK-5573,1 55750U 23028K   23118.58334491 -.00903190  00000-0 -58230-1 0  9992,2 55750  70.0027   2.2632 0003224 267.2611 267.3401 15.11001301  1301,6911.282,95.301,535.375,530.919,0.0
55750.0,STARLINK-5573,PAYLOAD,2023-04-28 22:00:00,15.1033833,0.0003197,70.0029,1.4064,271.0172,275.8824,-0.059743,-0.009093,0.0,0 STARLINK-5573,1 55750U 23028K   23118.91667824 -.00909300  00000-0 -59743-1 0  9997,2 55750  70.0029   1.4064 0003197 271.0172 275.8824 15.10338330  9380,6913.304,95.343,537.38,532.959,0.0
